ONEWEB-0160             
1 48060U 21025U   24056.69087678 -.00000281  00000+0 -80328-3 0  9992
2 48060  87.8977 127.9483 0002859  93.6839 266.4617 13.13471262142966
ONEWEB-0163             
1 48061U 21025V   24056.90512115 -.00000133  00000+0 -39989-3 0  9999
2 48061  87.8974 127.9016 0001638 108.8609 251.2697 13.13468063143117
ONEWEB-0159             
1 48062U 21025W   24056.89401903  .00000090  00000+0  21114-3 0  9991
2 48062  87.8973 127.8886 0001829 111.0778 249.0546 13.13468023143031
ONEWEB-0164             
1 48063U 21025X   24056.72420225  .00000287  00000+0  75216-3 0  9992
2 48063  87.8972 127.9319 0001895  99.0277 261.1066 13.13471447142995
ONEWEB-0167             
1 48064U 21025Y   24056.90591864 -.00000188  00000+0 -55107-3 0  9990
2 48064  87.8973 127.9062 0001717 107.9540 252.1776 13.13471014143008
ONEWEB-0166             
1 48065U 21025Z   24056.92734970 -.00000174  00000+0 -51004-3 0  9997
2 48065  87.8970 127.8894 0001995 110.5978 249.5365 13.13469730143085
ONEWEB-0151             
1 48066U 21025AA  24056.92893232  .00001061  00000+0  28695-2 0  9998
2 48066  87.8974 127.8998 0001473 100.6969 259.4326 13.13464304143029
ONEWEB-0170             
1 48067U 21025AB  24056.93686056  .00000144  00000+0  35934-3 0  9990
2 48067  87.8973 127.8996 0002125  85.7832 274.3540 13.13473004142989
